{
  "type": "FeatureCollection",
  "features": [
    {
      "type": "Feature",
      "properties": {
        "norad_id": 28051,
        "name": "IRS-P6 (RESOURCESAT-1)",
        "group": "resource",
        "lat": 11.447843197835798,
        "lon": 35.204317881347706,
        "alt_km": 807.3715859101303,
        "timestamp": "2025-12-22T22:44:20.607177+00:00",
        "meta_object_name": "IRS-P6 (RESOURCESAT-1)",
        "meta_object_id": "2003-046A",
        "meta_epoch": "2025-12-22T19:37:15.032640",
        "meta_mean_motion": 14.36078709,
        "meta_eccentricity": 0.006476,
        "meta_inclination": 98.2163,
        "meta_ra_of_asc_node": 36.7571,
        "meta_arg_of_pericenter": 150.552,
        "meta_mean_anomaly": 270.3129,
        "meta_ephemeris_type": 0,
        "meta_classification_type": "U",
        "meta_norad_cat_id": 28051,
        "meta_element_set_no": 999,
        "meta_rev_at_epoch": 15521,
        "meta_bstar": 5.3873e-05,
        "meta_mean_motion_dot": 1.2e-06,
        "meta_mean_motion_ddot": 0,
        "tle_line1": "1 28051U 03046A   25356.81753510  .00000120  00000+0  53873-4 0  9992",
        "tle_line2": "2 28051  98.2163  36.7571 0064760 150.5520 270.3129 14.36078709155210"
      },
      "geometry": {
        "type": "Point",
        "coordinates": [
          35.204317881347706,
          11.447843197835798
        ]
      }
    },
    {
      "type": "Feature",
      "properties": {
        "norad_id": 28220,
        "name": "SHIYAN-1 (SY-1)",
        "group": "resource",
        "lat": 28.345212886423027,
        "lon": 54.797520097631704,
        "alt_km": 480.3511758413024,
        "timestamp": "2025-12-22T22:44:20.607188+00:00",
        "meta_object_name": "SHIYAN-1 (SY-1)",
        "meta_object_id": "2004-012A",
        "meta_epoch": "2025-12-21T21:28:24.522528",
        "meta_mean_motion": 15.28363795,
        "meta_eccentricity": 0.00051617,
        "meta_inclination": 97.8924,
        "meta_ra_of_asc_node": 57.9743,
        "meta_arg_of_pericenter": 287.3834,
        "meta_mean_anomaly": 72.684,
        "meta_ephemeris_type": 0,
        "meta_classification_type": "U",
        "meta_norad_cat_id": 28220,
        "meta_element_set_no": 999,
        "meta_rev_at_epoch": 18396,
        "meta_bstar": 0.00048309009,
        "meta_mean_motion_dot": 0.00013276,
        "meta_mean_motion_ddot": 0,
        "tle_line1": "1 28220U 04012A   25355.89472827  .00013276  00000+0  48309-3 0  9993",
        "tle_line2": "2 28220  97.8924  57.9743 0005161 287.3834  72.6840 15.28363795183961"
      },
      "geometry": {
        "type": "Point",
        "coordinates": [
          54.797520097631704,
          28.345212886423027
        ]
      }
    },
    {
      "type": "Feature",
      "properties": {
        "norad_id": 28376,
        "name": "AURA",
        "group": "resource",
        "lat": 66.31573881180339,
        "lon": 146.71030657162882,
        "alt_km": 682.6540182256431,
        "timestamp": "2025-12-22T22:44:20.607199+00:00",
        "meta_object_name": "AURA",
        "meta_object_id": "2004-026A",
        "meta_epoch": "2025-12-22T12:21:54.171648",
        "meta_mean_motion": 14.60967711,
        "meta_eccentricity": 0.00013936,
        "meta_inclination": 98.3199,
        "meta_ra_of_asc_node": 306.7879,
        "meta_arg_of_pericenter": 92.1922,
        "meta_mean_anomaly": 267.9438,
        "meta_ephemeris_type": 0,
        "meta_classification_type": "U",
        "meta_norad_cat_id": 28376,
        "meta_element_set_no": 999,
        "meta_rev_at_epoch": 14041,
        "meta_bstar": 0.00019712098,
        "meta_mean_motion_dot": 9.18e-06,
        "meta_mean_motion_ddot": 0,
        "tle_line1": "1 28376U 04026A   25356.51521032  .00000918  00000+0  19712-3 0  9998",
        "tle_line2": "2 28376  98.3199 306.7879 0001393  92.1922 267.9438 14.60967711140419"
      },
      "geometry": {
        "type": "Point",
        "coordinates": [
          146.71030657162882,
          66.31573881180339
        ]
      }
    },
    {
      "type": "Feature",
      "properties": {
        "norad_id": 28649,
        "name": "IRS-P5 (CARTOSAT-1)",
        "group": "resource",
        "lat": -34.063782697382074,
        "lon": 28.051451207409063,
        "alt_km": 602.8069597339254,
        "timestamp": "2025-12-22T22:44:20.607211+00:00",
        "meta_object_name": "IRS-P5 (CARTOSAT-1)",
        "meta_object_id": "2005-017A",
        "meta_epoch": "2025-12-22T13:13:31.817280",
        "meta_mean_motion": 14.90435728,
        "meta_eccentricity": 6.488e-05,
        "meta_inclination": 97.5483,
        "meta_ra_of_asc_node": 22.5289,
        "meta_arg_of_pericenter": 55.2209,
        "meta_mean_anomaly": 304.907,
        "meta_ephemeris_type": 0,
        "meta_classification_type": "U",
        "meta_norad_cat_id": 28649,
        "meta_element_set_no": 999,
        "meta_rev_at_epoch": 11750,
        "meta_bstar": 0.00015107404,
        "meta_mean_motion_dot": 1.42e-05,
        "meta_mean_motion_ddot": 0,
        "tle_line1": "1 28649U 05017A   25356.55106270  .00001420  00000+0  15107-3 0  9992",
        "tle_line2": "2 28649  97.5483  22.5289 0000648  55.2209 304.9070 14.90435728117506"
      },
      "geometry": {
        "type": "Point",
        "coordinates": [
          28.051451207409063,
          -34.063782697382074
        ]
      }
    },
    {
      "type": "Feature",
      "properties": {
        "norad_id": 28893,
        "name": "SINAH 1",
        "group": "resource",
        "lat": 67.32016996111822,
        "lon": 105.18817227353126,
        "alt_km": 665.1113077726422,
        "timestamp": "2025-12-22T22:44:20.607222+00:00",
        "meta_object_name": "SINAH 1",
        "meta_object_id": "2005-043D",
        "meta_epoch": "2025-12-22T14:13:27.952896",
        "meta_mean_motion": 14.63972248,
        "meta_eccentricity": 0.00156856,
        "meta_inclination": 98.2609,
        "meta_ra_of_asc_node": 125.1765,
        "meta_arg_of_pericenter": 108.2413,
        "meta_mean_anomaly": 252.0498,
        "meta_ephemeris_type": 0,
        "meta_classification_type": "U",
        "meta_norad_cat_id": 28893,
        "meta_element_set_no": 999,
        "meta_rev_at_epoch": 7468,
        "meta_bstar": 8.263685e-05,
        "meta_mean_motion_dot": 3.84e-06,
        "meta_mean_motion_ddot": 0,
        "tle_line1": "1 28893U 05043D   25356.59268464  .00000384  00000+0  82637-4 0  9991",
        "tle_line2": "2 28893  98.2609 125.1765 0015685 108.2413 252.0498 14.63972248 74688"
      },
      "geometry": {
        "type": "Point",
        "coordinates": [
          105.18817227353126,
          67.32016996111822
        ]
      }
    },
    {
      "type": "Feature",
      "properties": {
        "norad_id": 29079,
        "name": "EROS B",
        "group": "resource",
        "lat": 3.141492064548921,
        "lon": 113.62530403083619,
        "alt_km": 355.8958551021706,
        "timestamp": "2025-12-22T22:44:20.607233+00:00",
        "meta_object_name": "EROS B",
        "meta_object_id": "2006-014A",
        "meta_epoch": "2025-12-22T13:33:20.417760",
        "meta_mean_motion": 15.71327143,
        "meta_eccentricity": 0.00038997,
        "meta_inclination": 97.3463,
        "meta_ra_of_asc_node": 113.6284,
        "meta_arg_of_pericenter": 310.936,
        "meta_mean_anomaly": 49.1565,
        "meta_ephemeris_type": 0,
        "meta_classification_type": "U",
        "meta_norad_cat_id": 29079,
        "meta_element_set_no": 999,
        "meta_rev_at_epoch": 9234,
        "meta_bstar": 0.0014360825,
        "meta_mean_motion_dot": 0.00185743,
        "meta_mean_motion_ddot": 0,
        "tle_line1": "1 29079U 06014A   25356.56481965  .00185743  00000+0  14361-2 0  9997",
        "tle_line2": "2 29079  97.3463 113.6284 0003899 310.9360  49.1565 15.71327143 92349"
      },
      "geometry": {
        "type": "Point",
        "coordinates": [
          113.62530403083619,
          3.141492064548921
        ]
      }
    },
    {
      "type": "Feature",
      "properties": {
        "norad_id": 29228,
        "name": "RESURS-DK 1",
        "group": "resource",
        "lat": -18.298467952852985,
        "lon": 68.51541439686561,
        "alt_km": 533.9937373497296,
        "timestamp": "2025-12-22T22:44:20.607244+00:00",
        "meta_object_name": "RESURS-DK 1",
        "meta_object_id": "2006-021A",
        "meta_epoch": "2025-12-22T11:42:44.959104",
        "meta_mean_motion": 15.1221149,
        "meta_eccentricity": 0.00068667,
        "meta_inclination": 69.9337,
        "meta_ra_of_asc_node": 76.645,
        "meta_arg_of_pericenter": 250.3556,
        "meta_mean_anomaly": 109.6869,
        "meta_ephemeris_type": 0,
        "meta_classification_type": "U",
        "meta_norad_cat_id": 29228,
        "meta_element_set_no": 999,
        "meta_rev_at_epoch": 7585,
        "meta_bstar": 0.00015666054,
        "meta_mean_motion_dot": 2.606e-05,
        "meta_mean_motion_ddot": 0,
        "tle_line1": "1 29228U 06021A   25356.48802036  .00002606  00000+0  15666-3 0  9994",
        "tle_line2": "2 29228  69.9337  76.6450 0006866 250.3556 109.6869 15.12211490 75852"
      },
      "geometry": {
        "type": "Point",
        "coordinates": [
          68.51541439686561,
          -18.298467952852985
        ]
      }
    }
  ]
}